ORBCOMM FM24            
1 25478U 98053D   25026.91076717  .00002439  00000+0  85501-3 0  9993
2 25478  45.0055 218.6548 0002040 209.1056 150.9679 14.37432356377114
ORBCOMM FM28            
1 25482U 98053H   25027.34598914  .00002338  00000+0  81720-3 0  9991
2 25482  45.0042 152.8320 0004327 285.5570  74.4801 14.37698436378088
ORBCOMM FM30            
1 25980U 99065A   25027.08666456  .00002102  00000+0  75375-3 0  9994
2 25980  45.0318  37.3388 0006516   0.8375 359.2483 14.36736597314159
ORBCOMM FM31            
1 25981U 99065B   25027.40307617  .00002277  00000+0  81309-3 0  9999
2 25981  45.0233  29.3824 0003300  12.2498 347.8430 14.36709788313755
ORBCOMM FM32            
1 25982U 99065C   25027.21626564  .00002411  00000+0  87487-3 0  9997
2 25982  45.0156  45.8906 0004863  21.6723 338.4330 14.35743652314331
