<?xml version="1.0" encoding="UTF-8"?>
<ndm xmlns:xsi="http://www.w3.org/2001/XMLSchema-instance" xsi:noNamespaceSchemaLocation="https://sanaregistry.org/r/ndmxml_unqualified/ndmxml-2.0.0-master-2.0.xsd">
<omm id="CCSDS_OMM_VERS" version="2.0">
<header><CREATION_DATE/><ORIGINATOR/></header><body><segment><metadata><OBJECT_NAME>ORBCOMM FM24</OBJECT_NAME><OBJECT_ID>1998-053D</OBJECT_ID><CENTER_NAME>EARTH</CENTER_NAME><REF_FRAME>TEME</REF_FRAME><TIME_SYSTEM>UTC</TIME_SYSTEM><MEAN_ELEMENT_THEORY>SGP4</MEAN_ELEMENT_THEORY></metadata><data><meanElements><EPOCH>2025-01-26T21:51:30.283488</EPOCH><MEAN_MOTION>14.37432356</MEAN_MOTION><ECCENTRICITY>.000204</ECCENTRICITY><INCLINATION>45.0055</INCLINATION><RA_OF_ASC_NODE>218.6548</RA_OF_ASC_NODE><ARG_OF_PERICENTER>209.1056</ARG_OF_PERICENTER><MEAN_ANOMALY>150.9679</MEAN_ANOMALY></meanElements><tleParameters><EPHEMERIS_TYPE>0</EPHEMERIS_TYPE><CLASSIFICATION_TYPE>U</CLASSIFICATION_TYPE><NORAD_CAT_ID>25478</NORAD_CAT_ID><ELEMENT_SET_NO>999</ELEMENT_SET_NO><REV_AT_EPOCH>37711</REV_AT_EPOCH><BSTAR>.85501E-3</BSTAR><MEAN_MOTION_DOT>.2439E-4</MEAN_MOTION_DOT><MEAN_MOTION_DDOT>0</MEAN_MOTION_DDOT></tleParameters></data></segment></body></omm>
<omm id="CCSDS_OMM_VERS" version="2.0">
<header><CREATION_DATE/><ORIGINATOR/></header><body><segment><metadata><OBJECT_NAME>ORBCOMM FM28</OBJECT_NAME><OBJECT_ID>1998-053H</OBJECT_ID><CENTER_NAME>EARTH</CENTER_NAME><REF_FRAME>TEME</REF_FRAME><TIME_SYSTEM>UTC</TIME_SYSTEM><MEAN_ELEMENT_THEORY>SGP4</MEAN_ELEMENT_THEORY></metadata><data><meanElements><EPOCH>2025-01-27T08:18:13.461696</EPOCH><MEAN_MOTION>14.37698436</MEAN_MOTION><ECCENTRICITY>.0004327</ECCENTRICITY><INCLINATION>45.0042</INCLINATION><RA_OF_ASC_NODE>152.8320</RA_OF_ASC_NODE><ARG_OF_PERICENTER>285.5570</ARG_OF_PERICENTER><MEAN_ANOMALY>74.4801</MEAN_ANOMALY></meanElements><tleParameters><EPHEMERIS_TYPE>0</EPHEMERIS_TYPE><CLASSIFICATION_TYPE>U</CLASSIFICATION_TYPE><NORAD_CAT_ID>25482</NORAD_CAT_ID><ELEMENT_SET_NO>999</ELEMENT_SET_NO><REV_AT_EPOCH>37808</REV_AT_EPOCH><BSTAR>.8172E-3</BSTAR><MEAN_MOTION_DOT>.2338E-4</MEAN_MOTION_DOT><MEAN_MOTION_DDOT>0</MEAN_MOTION_DDOT></tleParameters></data></segment></body></omm>
<omm id="CCSDS_OMM_VERS" version="2.0">
<header><CREATION_DATE/><ORIGINATOR/></header><body><segment><metadata><OBJECT_NAME>ORBCOMM FM30</OBJECT_NAME><OBJECT_ID>1999-065A</OBJECT_ID><CENTER_NAME>EARTH</CENTER_NAME><REF_FRAME>TEME</REF_FRAME><TIME_SYSTEM>UTC</TIME_SYSTEM><MEAN_ELEMENT_THEORY>SGP4</MEAN_ELEMENT_THEORY></metadata><data><meanElements><EPOCH>2025-01-27T02:04:47.817984</EPOCH><MEAN_MOTION>14.36736597</MEAN_MOTION><ECCENTRICITY>.0006516</ECCENTRICITY><INCLINATION>45.0318</INCLINATION><RA_OF_ASC_NODE>37.3388</RA_OF_ASC_NODE><ARG_OF_PERICENTER>0.8375</ARG_OF_PERICENTER><MEAN_ANOMALY>359.2483</MEAN_ANOMALY></meanElements><tleParameters><EPHEMERIS_TYPE>0</EPHEMERIS_TYPE><CLASSIFICATION_TYPE>U</CLASSIFICATION_TYPE><NORAD_CAT_ID>25980</NORAD_CAT_ID><ELEMENT_SET_NO>999</ELEMENT_SET_NO><REV_AT_EPOCH>31415</REV_AT_EPOCH><BSTAR>.75375E-3</BSTAR><MEAN_MOTION_DOT>.2102E-4</MEAN_MOTION_DOT><MEAN_MOTION_DDOT>0</MEAN_MOTION_DDOT></tleParameters></data></segment></body></omm>
<omm id="CCSDS_OMM_VERS" version="2.0">
<header><CREATION_DATE/><ORIGINATOR/></header><body><segment><metadata><OBJECT_NAME>ORBCOMM FM31</OBJECT_NAME><OBJECT_ID>1999-065B</OBJECT_ID><CENTER_NAME>EARTH</CENTER_NAME><REF_FRAME>TEME</REF_FRAME><TIME_SYSTEM>UTC</TIME_SYSTEM><MEAN_ELEMENT_THEORY>SGP4</MEAN_ELEMENT_THEORY></metadata><data><meanElements><EPOCH>2025-01-27T09:40:25.781088</EPOCH><MEAN_MOTION>14.36709788</MEAN_MOTION><ECCENTRICITY>.00033</ECCENTRICITY><INCLINATION>45.0233</INCLINATION><RA_OF_ASC_NODE>29.3824</RA_OF_ASC_NODE><ARG_OF_PERICENTER>12.2498</ARG_OF_PERICENTER><MEAN_ANOMALY>347.8430</MEAN_ANOMALY></meanElements><tleParameters><EPHEMERIS_TYPE>0</EPHEMERIS_TYPE><CLASSIFICATION_TYPE>U</CLASSIFICATION_TYPE><NORAD_CAT_ID>25981</NORAD_CAT_ID><ELEMENT_SET_NO>999</ELEMENT_SET_NO><REV_AT_EPOCH>31375</REV_AT_EPOCH><BSTAR>.81309E-3</BSTAR><MEAN_MOTION_DOT>.2277E-4</MEAN_MOTION_DOT><MEAN_MOTION_DDOT>0</MEAN_MOTION_DDOT></tleParameters></data></segment></body></omm>
<omm id="CCSDS_OMM_VERS" version="2.0">
<header><CREATION_DATE/><ORIGINATOR/></header><body><segment><metadata><OBJECT_NAME>ORBCOMM FM32</OBJECT_NAME><OBJECT_ID>1999-065C</OBJECT_ID><CENTER_NAME>EARTH</CENTER_NAME><REF_FRAME>TEME</REF_FRAME><TIME_SYSTEM>UTC</TIME_SYSTEM><MEAN_ELEMENT_THEORY>SGP4</MEAN_ELEMENT_THEORY></metadata><data><meanElements><EPOCH>2025-01-27T05:11:25.351296</EPOCH><MEAN_MOTION>14.35743652</MEAN_MOTION><ECCENTRICITY>.0004863</ECCENTRICITY><INCLINATION>45.0156</INCLINATION><RA_OF_ASC_NODE>45.8906</RA_OF_ASC_NODE><ARG_OF_PERICENTER>21.6723</ARG_OF_PERICENTER><MEAN_ANOMALY>338.4330</MEAN_ANOMALY></meanElements><tleParameters><EPHEMERIS_TYPE>0</EPHEMERIS_TYPE><CLASSIFICATION_TYPE>U</CLASSIFICATION_TYPE><NORAD_CAT_ID>25982</NORAD_CAT_ID><ELEMENT_SET_NO>999</ELEMENT_SET_NO><REV_AT_EPOCH>31433</REV_AT_EPOCH><BSTAR>.87487E-3</BSTAR><MEAN_MOTION_DOT>.2411E-4</MEAN_MOTION_DOT><MEAN_MOTION_DDOT>0</MEAN_MOTION_DDOT></tleParameters></data></segment></body></omm>

</ndm>
